[{"OBJECT_NAME":"STARLINK-3550","OBJECT_ID":"2022-045AU","EPOCH":"2026-03-09T19:33:33.592032","MEAN_MOTION":15.08829328,"ECCENTRICITY":8.425e-5,"INCLINATION":53.2164,"RA_OF_ASC_NODE":188.5603,"ARG_OF_PERICENTER":74.5029,"MEAN_ANOMALY":285.6056,"EPHEMERIS_TYPE":0,"CLASSIFICATION_TYPE":"U","NORAD_CAT_ID":52373,"ELEMENT_SET_NO":999,"REV_AT_EPOCH":21594,"BSTAR":0.00013783224,"MEAN_MOTION_DOT":1.906e-5,"MEAN_MOTION_DDOT":0},{"OBJECT_NAME":"DELFI-N3XT","OBJECT_ID":"2013-066N","EPOCH":"2026-03-09T17:56:16.820160","MEAN_MOTION":14.93675177,"ECCENTRICITY":0.00763289,"INCLINATION":97.8341,"RA_OF_ASC_NODE":349.2574,"ARG_OF_PERICENTER":176.1438,"MEAN_ANOMALY":184.0386,"EPHEMERIS_TYPE":0,"CLASSIFICATION_TYPE":"U","NORAD_CAT_ID":39428,"ELEMENT_SET_NO":999,"REV_AT_EPOCH":65977,"BSTAR":0.00065912071,"MEAN_MOTION_DOT":7.321e-5,"MEAN_MOTION_DDOT":0}]
